{
  "type": "FeatureCollection",
  "features": [
    {
      "type": "Feature",
      "properties": {
        "norad_id": 66174,
        "name": "HTV-X1",
        "group": "stations",
        "lat": 41.02625588890518,
        "lon": -118.22865340153523,
        "alt_km": 414.0084272136228,
        "timestamp": "2025-12-20T05:41:48.772436+00:00",
        "meta_object_name": "HTV-X1",
        "meta_object_id": "2025-241A",
        "meta_epoch": "2025-12-19T18:20:02.855616",
        "meta_mean_motion": 15.49672026,
        "meta_eccentricity": 0.00031868,
        "meta_inclination": 51.6318,
        "meta_ra_of_asc_node": 107.6945,
        "meta_arg_of_pericenter": 273.0117,
        "meta_mean_anomaly": 87.0507,
        "meta_ephemeris_type": 0,
        "meta_classification_type": "U",
        "meta_norad_cat_id": 66174,
        "meta_element_set_no": 999,
        "meta_rev_at_epoch": 51,
        "meta_bstar": 0.0001262585,
        "meta_mean_motion_dot": 6.675e-05,
        "meta_mean_motion_ddot": 0,
        "tle_line1": "1 66174U 25241A   25353.76392194  .00006675  00000+0  12626-3 0  9990",
        "tle_line2": "2 66174  51.6318 107.6945 0003186 273.0117  87.0507 15.49672026   516"
      },
      "geometry": {
        "type": "Point",
        "coordinates": [
          -118.22865340153523,
          41.02625588890518
        ]
      }
    },
    {
      "type": "Feature",
      "properties": {
        "norad_id": 66515,
        "name": "SZ-21 MODULE",
        "group": "stations",
        "lat": 10.831060298798654,
        "lon": 137.78636607980414,
        "alt_km": 380.4049186858574,
        "timestamp": "2025-12-20T05:41:48.772448+00:00",
        "meta_object_name": "SZ-21 MODULE",
        "meta_object_id": "2025-246C",
        "meta_epoch": "2025-12-19T05:59:43.928736",
        "meta_mean_motion": 15.62811821,
        "meta_eccentricity": 0.0005734,
        "meta_inclination": 41.4773,
        "meta_ra_of_asc_node": 336.3242,
        "meta_arg_of_pericenter": 295.0263,
        "meta_mean_anomaly": 64.9981,
        "meta_ephemeris_type": 0,
        "meta_classification_type": "U",
        "meta_norad_cat_id": 66515,
        "meta_element_set_no": 999,
        "meta_rev_at_epoch": 546,
        "meta_bstar": 0.00023433,
        "meta_mean_motion_dot": 0.00021457,
        "meta_mean_motion_ddot": 0,
        "tle_line1": "1 66515U 25246C   25353.24981399  .00021457  00000+0  23433-3 0  9991",
        "tle_line2": "2 66515  41.4773 336.3242 0005734 295.0263  64.9981 15.62811821  5467"
      },
      "geometry": {
        "type": "Point",
        "coordinates": [
          137.78636607980414,
          10.831060298798654
        ]
      }
    },
    {
      "type": "Feature",
      "properties": {
        "norad_id": 66645,
        "name": "SHENZHOU-22",
        "group": "stations",
        "lat": 9.904716390720637,
        "lon": 139.7743592813576,
        "alt_km": 385.3723643638614,
        "timestamp": "2025-12-20T05:41:48.772459+00:00",
        "meta_object_name": "SHENZHOU-22",
        "meta_object_id": "2025-272A",
        "meta_epoch": "2025-12-19T22:50:46.623264",
        "meta_mean_motion": 15.5948412,
        "meta_eccentricity": 0.00077419,
        "meta_inclination": 41.4684,
        "meta_ra_of_asc_node": 332.9127,
        "meta_arg_of_pericenter": 94.7688,
        "meta_mean_anomaly": 265.4034,
        "meta_ephemeris_type": 0,
        "meta_classification_type": "U",
        "meta_norad_cat_id": 66645,
        "meta_element_set_no": 999,
        "meta_rev_at_epoch": 26357,
        "meta_bstar": 0.0002198914,
        "meta_mean_motion_dot": 0.00017657,
        "meta_mean_motion_ddot": 0,
        "tle_line1": "1 66645U 25272A   25353.95192851  .00017657  00000+0  21989-3 0  9990",
        "tle_line2": "2 66645  41.4684 332.9127 0007741  94.7688 265.4034 15.59484120263570"
      },
      "geometry": {
        "type": "Point",
        "coordinates": [
          139.7743592813576,
          9.904716390720637
        ]
      }
    },
    {
      "type": "Feature",
      "properties": {
        "norad_id": 66664,
        "name": "SOYUZ-MS 28",
        "group": "stations",
        "lat": 41.02625471387495,
        "lon": -118.22865114552486,
        "alt_km": 414.00842735799597,
        "timestamp": "2025-12-20T05:41:48.772468+00:00",
        "meta_object_name": "SOYUZ-MS 28",
        "meta_object_id": "2025-275A",
        "meta_epoch": "2025-12-19T18:20:02.855616",
        "meta_mean_motion": 15.49672026,
        "meta_eccentricity": 0.00031868,
        "meta_inclination": 51.6318,
        "meta_ra_of_asc_node": 107.6945,
        "meta_arg_of_pericenter": 273.0117,
        "meta_mean_anomaly": 87.0507,
        "meta_ephemeris_type": 0,
        "meta_classification_type": "U",
        "meta_norad_cat_id": 66664,
        "meta_element_set_no": 999,
        "meta_rev_at_epoch": 128,
        "meta_bstar": 0.0001262585,
        "meta_mean_motion_dot": 6.675e-05,
        "meta_mean_motion_ddot": 0,
        "tle_line1": "1 66664U 25275A   25353.76392194  .00006675  00000+0  12626-3 0  9991",
        "tle_line2": "2 66664  51.6318 107.6945 0003186 273.0117  87.0507 15.49672026  1285"
      },
      "geometry": {
        "type": "Point",
        "coordinates": [
          -118.22865114552486,
          41.02625471387495
        ]
      }
    },
    {
      "type": "Feature",
      "properties": {
        "norad_id": 66906,
        "name": "1998-067XS",
        "group": "stations",
        "lat": -3.0215299763827965,
        "lon": -72.3795672347507,
        "alt_km": 413.95107123453727,
        "timestamp": "2025-12-20T05:41:48.772478+00:00",
        "meta_object_name": "1998-067XS",
        "meta_object_id": "1998-067XS",
        "meta_epoch": "2025-12-19T19:37:45.032448",
        "meta_mean_motion": 15.50933488,
        "meta_eccentricity": 0.00029661,
        "meta_inclination": 51.6311,
        "meta_ra_of_asc_node": 107.3061,
        "meta_arg_of_pericenter": 238.2809,
        "meta_mean_anomaly": 121.7891,
        "meta_ephemeris_type": 0,
        "meta_classification_type": "U",
        "meta_norad_cat_id": 66906,
        "meta_element_set_no": 999,
        "meta_rev_at_epoch": 271,
        "meta_bstar": 0.00034986922,
        "meta_mean_motion_dot": 0.00020233,
        "meta_mean_motion_ddot": 0,
        "tle_line1": "1 66906U 98067XS  25353.81788232  .00020233  00000+0  34987-3 0  9997",
        "tle_line2": "2 66906  51.6311 107.3061 0002966 238.2809 121.7891 15.50933488  2714"
      },
      "geometry": {
        "type": "Point",
        "coordinates": [
          -72.3795672347507,
          -3.0215299763827965
        ]
      }
    },
    {
      "type": "Feature",
      "properties": {
        "norad_id": 66907,
        "name": "1998-067XT",
        "group": "stations",
        "lat": -36.92876786405793,
        "lon": -38.32693708768353,
        "alt_km": 411.8781926922111,
        "timestamp": "2025-12-20T05:41:48.772488+00:00",
        "meta_object_name": "1998-067XT",
        "meta_object_id": "1998-067XT",
        "meta_epoch": "2025-12-19T11:42:50.767776",
        "meta_mean_motion": 15.52255247,
        "meta_eccentricity": 0.0003998,
        "meta_inclination": 51.6306,
        "meta_ra_of_asc_node": 108.8528,
        "meta_arg_of_pericenter": 265.7173,
        "meta_mean_anomaly": 94.336,
        "meta_ephemeris_type": 0,
        "meta_classification_type": "U",
        "meta_norad_cat_id": 66907,
        "meta_element_set_no": 999,
        "meta_rev_at_epoch": 266,
        "meta_bstar": 0.00077339,
        "meta_mean_motion_dot": 0.00047666,
        "meta_mean_motion_ddot": 0,
        "tle_line1": "1 66907U 98067XT  25353.48808759  .00047666  00000+0  77339-3 0  9995",
        "tle_line2": "2 66907  51.6306 108.8528 0003998 265.7173  94.3360 15.52255247  2660"
      },
      "geometry": {
        "type": "Point",
        "coordinates": [
          -38.32693708768353,
          -36.92876786405793
        ]
      }
    },
    {
      "type": "Feature",
      "properties": {
        "norad_id": 66908,
        "name": "1998-067XU",
        "group": "stations",
        "lat": -39.6101270312099,
        "lon": -33.91464281754791,
        "alt_km": 411.509657272778,
        "timestamp": "2025-12-20T05:41:48.772498+00:00",
        "meta_object_name": "1998-067XU",
        "meta_object_id": "1998-067XU",
        "meta_epoch": "2025-12-18T14:03:56.443680",
        "meta_mean_motion": 15.52259493,
        "meta_eccentricity": 0.00039838,
        "meta_inclination": 51.6306,
        "meta_ra_of_asc_node": 113.3296,
        "meta_arg_of_pericenter": 260.0245,
        "meta_mean_anomaly": 100.0295,
        "meta_ephemeris_type": 0,
        "meta_classification_type": "U",
        "meta_norad_cat_id": 66908,
        "meta_element_set_no": 999,
        "meta_rev_at_epoch": 252,
        "meta_bstar": 0.00087908108,
        "meta_mean_motion_dot": 0.00054298,
        "meta_mean_motion_ddot": 0,
        "tle_line1": "1 66908U 98067XU  25352.58606995  .00054298  00000+0  87908-3 0  9996",
        "tle_line2": "2 66908  51.6306 113.3296 0003983 260.0245 100.0295 15.52259493  2520"
      },
      "geometry": {
        "type": "Point",
        "coordinates": [
          -33.91464281754791,
          -39.6101270312099
        ]
      }
    }
  ]
}